NORAD_CAT_ID,OBJECT_NAME,OBJECT_TYPE,EPOCH,MEAN_MOTION,ECCENTRICITY,INCLINATION,RA_OF_ASC_NODE,ARG_OF_PERICENTER,MEAN_ANOMALY,BSTAR,MEAN_MOTION_DOT,MEAN_MOTION_DDOT,TLE_LINE0,TLE_LINE1,TLE_LINE2,SEMIMAJOR_AXIS,PERIOD,APOGEE,PERIGEE,DECAYED
52853.0,STARLINK-4189,PAYLOAD,2024-03-26 21:12:31,15.08819714,0.0002254,53.218,343.9999,82.3158,277.809,-0.00013757,-2.476e-05,0.0,0 STARLINK-4189,1 52853U 22062Z   24086.88369375 -.00002476  00000-0 -13757-3 0  9991,2 52853  53.2180 343.9999 0002254  82.3158 277.8090 15.08819714 98802,6917.942,95.439,541.367,538.248,0.0
52853.0,STARLINK-4189,PAYLOAD,2024-03-26 22:47:54,15.0881807,0.0001866,53.2186,343.7034,86.6098,273.5108,-0.00021066,-3.637e-05,0.0,0 STARLINK-4189,1 52853U 22062Z   24086.94993374 -.00003637  00000-0 -21066-3 0  9992,2 52853  53.2186 343.7034 0001866  86.6098 273.5108 15.08818070 98328,6917.947,95.439,541.103,538.522,0.0
52853.0,STARLINK-4189,PAYLOAD,2024-03-27 09:55:36,15.08831317,0.0001591,53.2173,341.6252,94.079,266.0384,0.00088615,0.0001384,0.0,0 STARLINK-4189,1 52853U 22062Z   24087.41361812  .00013840  00000-0  88615-3 0  9999,2 52853  53.2173 341.6252 0001591  94.0790 266.0384 15.08831317 98883,6917.907,95.438,540.873,538.671,0.0
52853.0,STARLINK-4189,PAYLOAD,2024-03-27 22:38:41,15.08844067,0.0001615,53.2175,339.2471,93.8141,266.3036,0.00082554,0.00012876,0.0,0 STARLINK-4189,1 52853U 22062Z   24087.94353904  .00012876  00000-0  82554-3 0  9994,2 52853  53.2175 339.2471 0001615  93.8141 266.3036 15.08844067 98473,6917.868,95.437,540.85,538.616,0.0
52853.0,STARLINK-4189,PAYLOAD,2024-03-28 09:46:23,15.08843999,0.0001526,53.2168,337.1624,80.9998,279.1166,0.00049498,7.599e-05,0.0,0 STARLINK-4189,1 52853U 22062Z   24088.40721891  .00007599  00000-0  49498-3 0  9996,2 52853  53.2168 337.1624 0001526  80.9998 279.1166 15.08843999 99032,6917.868,95.437,540.789,538.677,0.0
52853.0,STARLINK-4189,PAYLOAD,2024-03-28 22:29:28,15.08843617,0.0001516,53.2175,334.7852,81.3345,278.7819,0.0002815,4.195e-05,0.0,0 STARLINK-4189,1 52853U 22062Z   24088.93713888  .00004195  00000-0  28150-3 0  9992,2 52853  53.2175 334.7852 0001516  81.3345 278.7819 15.08843617 98627,6917.869,95.437,540.783,538.686,0.0
52853.0,STARLINK-4189,PAYLOAD,2024-03-29 01:40:14,15.08849614,0.0001422,53.2168,334.1894,83.0102,277.1052,0.00041085,6.258e-05,0.0,0 STARLINK-4189,1 52853U 22062Z   24089.06961703  .00006258  00000-0  41085-3 0  9992,2 52853  53.2168 334.1894 0001422  83.0102 277.1052 15.08849614 98642,6917.851,95.437,540.7,538.732,0.0
52853.0,STARLINK-4189,PAYLOAD,2024-03-29 15:58:43,15.08847266,0.0001468,53.2172,331.5105,91.0664,269.0496,0.00027731,4.129e-05,0.0,0 STARLINK-4189,1 52853U 22062Z   24089.66577770  .00004129  00000-0  27731-3 0  9992,2 52853  53.2172 331.5105 0001468  91.0664 269.0496 15.08847266 99223,6917.858,95.437,540.739,538.708,0.0
52853.0,STARLINK-4189,PAYLOAD,2024-03-29 22:20:15,15.08850646,0.0001594,53.2174,330.3225,97.9637,262.1536,0.0003703,5.612e-05,0.0,0 STARLINK-4189,1 52853U 22062Z   24089.93073477  .00005612  00000-0  37030-3 0  9998,2 52853  53.2174 330.3225 0001594  97.9637 262.1536 15.08850646 98774,6917.848,95.437,540.816,538.61,0.0
52853.0,STARLINK-4189,PAYLOAD,2024-03-30 09:27:57,15.08847668,0.000183,53.2174,328.2443,66.1891,293.9293,0.00024776,3.658e-05,0.0,0 STARLINK-4189,1 52853U 22062Z   24090.39441636  .00003658  00000-0  24776-3 0  9997,2 52853  53.2174 328.2443 0001830  66.1891 293.9293 15.08847668 98845,6917.857,95.437,540.988,538.456,0.0
52853.0,STARLINK-4189,PAYLOAD,2024-03-30 20:35:39,15.08840681,0.0001627,53.2167,326.161,85.4885,274.6293,9.7921e-05,1.271e-05,0.0,0 STARLINK-4189,1 52853U 22062Z   24090.85809929  .00001271  00000-0  97921-4 0  9993,2 52853  53.2167 326.1610 0001627  85.4885 274.6293 15.08840681 99408,6917.878,95.438,540.869,538.618,0.0
52853.0,STARLINK-4189,PAYLOAD,2024-03-30 22:11:02,15.08842835,0.0001584,53.2191,325.8616,93.0098,267.1075,0.00020451,2.969e-05,0.0,0 STARLINK-4189,1 52853U 22062Z   24090.92433955  .00002969  00000-0  20451-3 0  9991,2 52853  53.2191 325.8616 0001584  93.0098 267.1075 15.08842835 98924,6917.872,95.437,540.833,538.641,0.0
52853.0,STARLINK-4189,PAYLOAD,2024-03-31 22:01:49,15.08852161,0.0001431,53.2172,321.4013,90.0362,270.0794,0.00026345,3.909e-05,0.0,0 STARLINK-4189,1 52853U 22062Z   24091.91793200  .00003909  00000-0  26345-3 0  9996,2 52853  53.2172 321.4013 0001431  90.0362 270.0794 15.08852161 99563,6917.843,95.437,540.698,538.718,0.0
52853.0,STARLINK-4189,PAYLOAD,2024-04-01 01:12:35,15.08855101,0.0001422,53.2171,320.8063,89.5825,270.533,0.00033403,5.034e-05,0.0,0 STARLINK-4189,1 52853U 22062Z   24092.05041069  .00005034  00000-0  33403-3 0  9995,2 52853  53.2171 320.8063 0001422  89.5825 270.5330 15.08855101 99093,6917.834,95.437,540.683,538.716,0.0
52853.0,STARLINK-4189,PAYLOAD,2024-04-01 21:52:36,15.08845157,0.0001246,53.2165,316.9414,93.1247,266.9888,0.00022586,3.309e-05,0.0,0 STARLINK-4189,1 52853U 22062Z   24092.91153529  .00003309  00000-0  22586-3 0  9998,2 52853  53.2165 316.9414 0001246  93.1247 266.9888 15.08845157 99711,6917.865,95.437,540.592,538.868,0.0
52853.0,STARLINK-4189,PAYLOAD,2024-04-02 07:24:55,15.08846848,0.0001104,53.2162,315.1562,88.6412,271.4706,0.0003449,5.207e-05,0.0,0 STARLINK-4189,1 52853U 22062Z   24093.30897507  .00005207  00000-0  34490-3 0  9999,2 52853  53.2162 315.1562 0001104  88.6412 271.4706 15.08846848 99289,6917.859,95.437,540.488,538.961,0.0
52853.0,STARLINK-4189,PAYLOAD,2024-04-02 21:43:24,15.08836305,0.0001457,53.2179,312.4837,104.2093,255.9061,0.00017373,2.478e-05,0.0,0 STARLINK-4189,1 52853U 22062Z   24093.90514034  .00002478  00000-0  17373-3 0  9994,2 52853  53.2179 312.4837 0001457 104.2093 255.9061 15.08836305 99865,6917.892,95.438,540.765,538.749,0.0
52853.0,STARLINK-4189,PAYLOAD,2024-04-03 07:15:42,15.08838116,0.0001394,53.2175,310.6986,100.138,259.977,0.00015336,2.154e-05,0.0,0 STARLINK-4189,1 52853U 22062Z   24094.30258075  .00002154  00000-0  15336-3 0  9997,2 52853  53.2175 310.6986 0001394 100.1380 259.9770 15.08838116 99436,6917.886,95.438,540.716,538.787,0.0
52853.0,STARLINK-4189,PAYLOAD,2024-04-03 19:58:48,15.08837118,0.0001399,53.2176,308.3199,100.4931,259.6219,8.7308e-05,1.102e-05,0.0,0 STARLINK-4189,1 52853U 22062Z   24094.83250256  .00001102  00000-0  87308-4 0  9999,2 52853  53.2176 308.3199 0001399 100.4931 259.6219 15.08837118 99512,6917.889,95.438,540.722,538.786,0.0
52853.0,STARLINK-4189,PAYLOAD,2024-04-03 23:09:34,15.08839165,0.0001384,53.2175,307.7249,99.2537,260.8612,0.00011689,1.573e-05,0.0,0 STARLINK-4189,1 52853U 22062Z   24094.96498255  .00001573  00000-0  11689-3 0  9996,2 52853  53.2175 307.7249 0001384  99.2537 260.8612 15.08839165100025,6917.883,95.438,540.705,538.791,0.0
52853.0,STARLINK-4189,PAYLOAD,2024-04-04 07:06:30,15.08840501,0.0001344,53.2171,306.2373,92.3853,267.7293,7.9536e-05,9.78e-06,0.0,0 STARLINK-4189,1 52853U 22062Z   24095.29618228  .00000978  00000-0  79536-4 0  9991,2 52853  53.2171 306.2373 0001344  92.3853 267.7293 15.08840501 99589,6917.879,95.438,540.674,538.814,0.0
52853.0,STARLINK-4189,PAYLOAD,2024-04-04 21:24:58,15.08845534,0.0001315,53.2169,303.5607,89.2193,270.895,0.00018695,2.689e-05,0.0,0 STARLINK-4189,1 52853U 22062Z   24095.89234077  .00002689  00000-0  18695-3 0  9992,2 52853  53.2169 303.5607 0001315  89.2193 270.8950 15.08845534 99672,6917.863,95.437,540.638,538.819,0.0
52853.0,STARLINK-4189,PAYLOAD,2024-04-05 13:18:49,15.08846216,0.0001319,53.2164,300.5868,86.3088,273.8055,0.00018888,2.72e-05,0.0,0 STARLINK-4189,1 52853U 22062Z   24096.55473954  .00002720  00000-0  18888-3 0  9995,2 52853  53.2164 300.5868 0001319  86.3088 273.8055 15.08846216100263,6917.861,95.437,540.639,538.814,0.0
52853.0,STARLINK-4189,PAYLOAD,2024-04-05 21:15:44,15.08849211,0.0001317,53.2165,299.0992,87.0287,273.0856,0.00018217,2.613e-05,0.0,0 STARLINK-4189,1 52853U 22062Z   24096.88593715  .00002613  00000-0  18217-3 0  9996,2 52853  53.2165 299.0992 0001317  87.0287 273.0856 15.08849211 99829,6917.852,95.437,540.628,538.806,0.0
52853.0,STARLINK-4189,PAYLOAD,2024-04-06 13:09:36,15.08841172,0.0001386,53.2165,296.127,84.8372,275.2778,7.5438e-05,9.13e-06,0.0,0 STARLINK-4189,1 52853U 22062Z   24097.54834033  .00000913  00000-0  75438-4 0  9991,2 52853  53.2165 296.1270 0001386  84.8372 275.2778 15.08841172100415,6917.877,95.437,540.701,538.783,0.0
52853.0,STARLINK-4189,PAYLOAD,2024-04-06 22:41:55,15.08839793,0.0001437,53.2166,294.3443,79.7315,280.3839,-8.9701e-06,-4.31e-06,0.0,0 STARLINK-4189,1 52853U 22062Z   24097.94578121 -.00000431  00000-0 -89701-5 0  9994,2 52853  53.2166 294.3443 0001437  79.7315 280.3839 15.08839793 99985,6917.881,95.438,540.74,538.752,0.0
52853.0,STARLINK-4189,PAYLOAD,2024-04-07 06:38:51,15.08837564,0.0001392,53.2173,292.8565,81.5724,278.5426,-2.1975e-05,-6.38e-06,0.0,0 STARLINK-4189,1 52853U 22062Z   24098.27698582 -.00000638  00000-0 -21975-4 0  9992,2 52853  53.2173 292.8565 0001392  81.5724 278.5426 15.08837564100524,6917.888,95.438,540.716,538.79,0.0
52853.0,STARLINK-4189,PAYLOAD,2024-04-07 22:32:42,15.08838901,0.0001397,53.2168,289.8817,87.0577,273.0575,1.2076e-05,-9.6e-07,0.0,0 STARLINK-4189,1 52853U 22062Z   24098.93938389 -.00000096  00000-0  12076-4 0  9996,2 52853  53.2168 289.8817 0001397  87.0577 273.0575 15.08838901100134,6917.884,95.438,540.715,538.782,0.0
52853.0,STARLINK-4189,PAYLOAD,2024-04-08 12:51:10,15.08837884,0.0001325,53.2148,287.2054,85.0242,275.0902,9.2928e-05,1.191e-05,0.0,0 STARLINK-4189,1 52853U 22062Z   24099.53554336  .00001191  00000-0  92928-4 0  9999,2 52853  53.2148 287.2054 0001325  85.0242 275.0902 15.08837884100714,6917.887,95.438,540.668,538.835,0.0
52853.0,STARLINK-4189,PAYLOAD,2024-04-08 19:12:43,15.08841761,0.0001329,53.2145,286.0151,88.4493,271.6652,0.00011911,1.608e-05,0.0,0 STARLINK-4189,1 52853U 22062Z   24099.80050045  .00001608  00000-0  11911-3 0  9992,2 52853  53.2145 286.0151 0001329  88.4493 271.6652 15.08841761100268,6917.875,95.437,540.659,538.821,0.0
